[{"OBJECT_NAME":"QIANFAN-35","OBJECT_ID":"2024-185S","EPOCH":"2026-03-09T22:26:33.581760","MEAN_MOTION":14.28128705,"ECCENTRICITY":0.00069627,"INCLINATION":88.9749,"RA_OF_ASC_NODE":66.6226,"ARG_OF_PERICENTER":20.1226,"MEAN_ANOMALY":340.0242,"EPHEMERIS_TYPE":0,"CLASSIFICATION_TYPE":"U","NORAD_CAT_ID":61568,"ELEMENT_SET_NO":999,"REV_AT_EPOCH":8262,"BSTAR":0.00043408229,"MEAN_MOTION_DOT":1.093e-5,"MEAN_MOTION_DDOT":0},{"OBJECT_NAME":"CZ-6A DEB","OBJECT_ID":"2024-140LA","EPOCH":"2026-03-09T20:35:12.732000","MEAN_MOTION":14.21745401,"ECCENTRICITY":0.00520248,"INCLINATION":89.3584,"RA_OF_ASC_NODE":310.1651,"ARG_OF_PERICENTER":148.8228,"MEAN_ANOMALY":211.6068,"EPHEMERIS_TYPE":0,"CLASSIFICATION_TYPE":"U","NORAD_CAT_ID":60895,"ELEMENT_SET_NO":999,"REV_AT_EPOCH":8062,"BSTAR":0.0010617842,"MEAN_MOTION_DOT":2.379e-5,"MEAN_MOTION_DDOT":0}]
